STARLINK-1467_new
1 15733C 20038D   21326.14669615  .00005873  00000-0  39350-3 0  3267
2 15733  53.0553  78.0909 0001303  61.7475 346.4974 15.06390145    17
STARLINK-1467_old
1 25733C 20038D   21325.18210929  .00005708  00000-0  38258-3 0  3252
2 25733  53.0551  82.4207 0001337  62.7736 151.6316 15.06378827    12
